STARLINK-31586          
1 59205U 24046E   26068.51876872  .00000697  00000+0  35675-4 0  9994
2 59205  53.1600 156.1146 0000993  99.6292 260.4821 15.30192497113021
HAWK-11B                
1 62379U 24247C   26068.44730104  .00009093  00000+0  32842-3 0  9993
2 62379  45.0161 115.7610 0004690 333.0326  27.0314 15.28847070 67738
